[{"OBJECT_NAME":"STARLINK-4061","OBJECT_ID":"2022-086F","EPOCH":"2026-03-09T14:03:44.129952","MEAN_MOTION":15.08827445,"ECCENTRICITY":0.0001224,"INCLINATION":53.2169,"RA_OF_ASC_NODE":199.7689,"ARG_OF_PERICENTER":69.4442,"MEAN_ANOMALY":290.6682,"EPHEMERIS_TYPE":0,"CLASSIFICATION_TYPE":"U","NORAD_CAT_ID":53247,"ELEMENT_SET_NO":999,"REV_AT_EPOCH":20129,"BSTAR":-3.3711e-5,"MEAN_MOTION_DOT":-8.24e-6,"MEAN_MOTION_DDOT":0},{"OBJECT_NAME":"THOR AGENA B DEB","OBJECT_ID":"1965-098F","EPOCH":"2026-03-09T22:45:15.729408","MEAN_MOTION":13.60223409,"ECCENTRICITY":0.07538154,"INCLINATION":79.8484,"RA_OF_ASC_NODE":20.4001,"ARG_OF_PERICENTER":143.1562,"MEAN_ANOMALY":222.3913,"EPHEMERIS_TYPE":0,"CLASSIFICATION_TYPE":"U","NORAD_CAT_ID":1948,"ELEMENT_SET_NO":999,"REV_AT_EPOCH":79567,"BSTAR":0.00090419941,"MEAN_MOTION_DOT":4.962e-5,"MEAN_MOTION_DDOT":0}]
